IRIDIUM 155             
1 43573U 18061E   25044.52215794  .00000067  00000+0  16794-4 0  9991
2 43573  86.3921 260.8555 0002397  89.6812 270.4658 14.34217532343317
IRIDIUM 154             
1 43574U 18061F   25044.57289843  .00000030  00000+0  36200-5 0  9998
2 43574  86.3923 260.9436 0002030  85.8609 274.2819 14.34217839343372
IRIDIUM 163             
1 43575U 18061G   25044.55386867  .00000008  00000+0 -42257-5 0  9996
2 43575  86.3924 260.8819 0001935  91.6643 268.4775 14.34216905343340
IRIDIUM 156             
1 43576U 18061H   25044.52850157  .00000030  00000+0  35582-5 0  9999
2 43576  86.3920 260.9000 0002486  85.8666 274.2814 14.34216088343332
IRIDIUM 164             
1 43577U 18061J   25044.50947165  .00000415  00000+0  14098-3 0  9998
2 43577  86.3922 260.9402 0001961  81.3138 278.8280 14.34219033343377
IRIDIUM 159             
1 43578U 18061K   25044.54752724  .00000002  00000+0 -63446-5 0  9994
2 43578  86.3923 260.8710 0001712  89.3566 270.7826 14.34217437343347
IRIDIUM 180             
1 43922U 19002A   25044.47725651  .00000058  00000+0  13478-4 0  9993
2 43922  86.4002 197.8044 0002080  97.6001 262.5432 14.34217464318943
IRIDIUM 176             
1 43923U 19002B   25044.47118454  .00001946  00000+0  30467-3 0  9994
2 43923  86.6129 197.8096 0001335 112.4017 247.7341 14.72248030327341
IRIDIUM 168             
1 43924U 19002C   25044.47091360 -.00000032  00000+0 -18339-4 0  9993
2 43924  86.4008 197.8708 0001816  95.3406 264.7997 14.34216825318926
IRIDIUM 173             
1 43925U 19002D   25044.45821676  .00000541  00000+0  18603-3 0  9999
2 43925  86.4005 197.7854 0002012  96.3511 263.7914 14.34213911318901
IRIDIUM 169             
1 43926U 19002E   25044.48392705  .00000181  00000+0  52583-4 0  9995
2 43926  86.4200 229.3663 0003430 110.9372 249.2194 14.38586137319965
IRIDIUM 172             
1 43927U 19002F   25044.52165250  .00000093  00000+0  26055-4 0  9991
2 43927  86.4000 197.7649 0001911  96.6503 263.4910 14.34218720318929
IRIDIUM 175             
1 43928U 19002G   25044.60185575  .00001904  00000+0  29798-3 0  9991
2 43928  86.1559 157.3293 0003170  88.6241 271.5339 14.72257468327358
IRIDIUM 171             
1 43929U 19002H   25044.43285841  .00000011  00000+0 -33053-5 0  9990
2 43929  86.4014 198.0541 0002030  82.0268 278.1158 14.34217205318903
IRIDIUM 170             
1 43930U 19002J   25044.47736149  .00001090  00000+0  16896-3 0  9999
2 43930  86.6129 197.8124 0002348 100.3449 259.8033 14.72253203327352
IRIDIUM 167             
1 43931U 19002K   25044.49628121  .00000552  00000+0  18991-3 0  9992
2 43931  86.4002 197.7937 0002438  88.6647 271.4828 14.34218611318916
IRIDIUM 181             
1 56726U 23068S   25044.33429652  .00000604  00000+0  17359-3 0  9991
2 56726  86.4461 260.9762 0002330  77.3283 282.8178 14.43312144 91921
IRIDIUM 177             
1 56727U 23068T   25044.49536805  .00002718  00000+0  35436-3 0  9992
2 56727  86.1991 200.7826 0002406 101.3885 258.7606 14.80215042 94077
IRIDIUM 174             
1 56728U 23068U   25044.48992741  .00002688  00000+0  35034-3 0  9997
2 56728  86.1998 200.9079 0002167  81.6353 278.5114 14.80216563 94074
IRIDIUM 178             
1 56729U 23068V   25044.48451362  .00000884  00000+0  11287-3 0  9997
2 56729  86.5752 229.7775 0002109  67.9640 292.1805 14.80227207 94077
IRIDIUM 179             
1 56730U 23068W   25044.47907922  .00000037  00000+0  13705-5 0  9995
2 56730  86.6752 236.9501 0002038  85.6430 274.5024 14.80229854 94079
